     2.100          NAVIGATION                              RINEX VERSION / TYPE
fic2rin                                 05/28/2014 00:14:45 PGM / RUN BY / DATE
                                                            END OF HEADER
 1 14  5 27 22  0  0.0  .135786831379D-04  .113686837722D-11  .000000000000D+00
     .190000000000D+02 -.303125000000D+01  .503842415630D-08  .611540279964D-01
    -.279396772385D-06  .306701543741D-02  .434368848801D-05  .515366847801D+04
     .252000000000D+06 -.372529029846D-08 -.169563674372D+01  .298023223877D-07
     .960411937904D+00  .291468750000D+03  .305318973121D+00 -.830748889740D-08
    -.164292557730D-09  .100000000000D+01  .179400000000D+04  .000000000000D+00
     .240000000000D+01  .000000000000D+00  .558793544769D-08  .190000000000D+02
     .244806000000D+06  .400000000000D+01
 2 14  5 27 22  0  0.0  .497770030051D-03  .216004991671D-11  .000000000000D+00
     .830000000000D+02  .815625000000D+01  .557380359986D-08  .667483547369D+00
     .584870576859D-06  .135572513100D-01  .460632145405D-05  .515359907532D+04
     .252000000000D+06 -.141561031342D-06 -.172526770469D+01  .201165676117D-06
     .938963488833D+00  .280906250000D+03 -.242120327807D+01 -.866250368519D-08
    -.157506560780D-09  .100000000000D+01  .179400000000D+04  .000000000000D+00
     .240000000000D+01  .000000000000D+00 -.204890966415D-07  .830000000000D+02
     .244806000000D+06  .400000000000D+01
 3 14  5 27 22  0  0.0  .370475463569D-03  .488853402203D-11  .000000000000D+00
     .910000000000D+02 -.162187500000D+02  .509342644737D-08  .788002947554D+00
    -.720843672752D-06  .170267496724D-01  .115782022476D-04  .515379820633D+04
     .252000000000D+06 -.281259417534D-06 -.289977916788D+01 -.372529029846D-08
     .938705431546D+00  .152062500000D+03  .138414153382D+01 -.842927968476D-08
     .337156901081D-09  .100000000000D+01  .179400000000D+04  .000000000000D+00
     .340000000000D+01  .000000000000D+00 -.465661287308D-08  .910000000000D+02
     .244806000000D+06  .400000000000D+01
 4 14  5 27 22  0  0.0  .693975016475D-05  .113686837722D-12  .000000000000D+00
     .330000000000D+02  .181250000000D+01  .544022660727D-08 -.225785605434D+01
     .111758708954D-06  .105662149144D-01  .427849590778D-05  .515372608376D+04
     .252000000000D+06  .121071934700D-06 -.170923952802D+01 -.335276126862D-07
     .937977726354D+00  .283500000000D+03  .109913854733D+01 -.830284584686D-08
     .192865176466D-10  .100000000000D+01  .179400000000D+04  .000000000000D+00
     .240000000000D+01  .000000000000D+00 -.651925802231D-08  .330000000000D+02
     .244806000000D+06  .400000000000D+01
 5 14  5 27 22  0  0.0 -.369935296476D-03  .261479726760D-11  .000000000000D+00
     .470000000000D+02 -.943750000000D+01  .468983820773D-08  .302893497370D+01
    -.532716512680D-06  .357311603148D-02  .103730708361D-04  .515360149765D+04
     .252000000000D+06  .167638063431D-07 -.657149647663D+00 -.577419996262D-07
     .947314299214D+00  .172843750000D+03  .309659688055D+00 -.796783189218D-08
    -.639312344211D-09  .100000000000D+01  .179400000000D+04  .000000000000D+00
     .240000000000D+01  .000000000000D+00 -.102445483208D-07  .470000000000D+02
     .244806000000D+06  .400000000000D+01
 6 14  5 27 22  0  0.0  .580959022045D-05  .466116034659D-11  .000000000000D+00
     .139000000000D+03 -.309375000000D+01  .481912930751D-08 -.247440509697D+01
    -.342726707458D-06  .327958143316D-03  .456161797047D-05  .518122450638D+04
     .252000000000D+06 -.186264514923D-08 -.170436823172D+01  .353902578354D-07
     .960352240606D+00  .286031250000D+03  .242662915491D+01 -.792925885689D-08
    -.156077929844D-09  .100000000000D+01  .179400000000D+04  .000000000000D+00
     .485000000000D+01  .630000000000D+02  .605359673500D-08  .139000000000D+03
     .244806000000D+06  .400000000000D+01
 8 14  5 27 22  0  0.0  .138250179589D-04  .227373675443D-12  .000000000000D+00
     .103000000000D+03 -.255312500000D+02  .404588281297D-08 -.106914889786D+01
    -.127404928207D-05  .137025018921D-01  .664964318275D-06  .515335387611D+04
     .252000000000D+06  .214204192162D-06  .156430827341D+01 -.108033418655D-06
     .996413626227D+00  .378781250000D+03 -.277428676786D+01 -.816605443466D-08
     .120362156424D-09  .100000000000D+01  .179400000000D+04  .000000000000D+00
     .340000000000D+01  .000000000000D+00 -.419095158577D-08  .103000000000D+03
     .244806000000D+06  .400000000000D+01
10 14  5 27 22  0  0.0 -.127335544676D-03 -.159161572810D-11  .000000000000D+00
     .650000000000D+02 -.231250000000D+01  .460304887832D-08 -.303658401643D+01
    -.175088644028D-06  .135681877146D-01  .104960054159D-04  .515373726273D+04
     .252000000000D+06  .763684511185D-07 -.639887266993D+00 -.160187482834D-06
     .942129653173D+00  .164781250000D+03  .865682104026D+00 -.777318092704D-08
    -.592524681031D-09  .100000000000D+01  .179400000000D+04  .000000000000D+00
     .340000000000D+01  .000000000000D+00 -.279396772385D-08  .650000000000D+02
     .244806000000D+06  .400000000000D+01
11 14  5 27 22  0  0.0 -.492455437779D-03 -.306954461848D-11  .000000000000D+00
     .840000000000D+02  .293125000000D+02  .681314093752D-08 -.408942149328D+00
     .171363353729D-05  .149564024759D-01  .465475022793D-05  .515369183350D+04
     .252000000000D+06 -.121071934700D-06 -.201978207544D+01  .117346644402D-06
     .890256993360D+00  .250906250000D+03  .128676769202D+01 -.943682165293D-08
     .238938524177D-09  .100000000000D+01  .179400000000D+04  .000000000000D+00
     .240000000000D+01  .000000000000D+00 -.121071934700D-07  .840000000000D+02
     .244806000000D+06  .400000000000D+01
12 14  5 27 22  0  0.0  .207715202123D-03  .250111042988D-11  .000000000000D+00
     .230000000000D+02 -.134062500000D+03  .393016370709D-08 -.102740364394D+01
    -.688619911671D-05  .515041407198D-02  .803917646408D-05  .515362339973D+04
     .252000000000D+06  .130385160446D-06  .252820581406D+01 -.242143869400D-07
     .987722444547D+00  .239312500000D+03  .439712410415D+00 -.776496629916D-08
    -.146791828755D-09  .100000000000D+01  .179400000000D+04  .000000000000D+00
     .240000000000D+01  .000000000000D+00 -.121071934700D-07  .230000000000D+02
     .244806000000D+06  .400000000000D+01
13 14  5 27 22  0  0.0 -.451738014817D-05 -.386535248253D-11  .000000000000D+00
     .280000000000D+02  .133468750000D+03  .383194533019D-08  .174233315757D+01
     .694952905178D-05  .538631237578D-02  .732764601707D-05  .515359055138D+04
     .252000000000D+06  .126659870148D-06  .500187697088D+00  .137835741043D-06
     .977934305449D+00  .245875000000D+03  .226926970316D+01 -.773675083816D-08
     .320727645308D-09  .100000000000D+01  .179400000000D+04  .000000000000D+00
     .240000000000D+01  .000000000000D+00 -.111758708954D-07  .280000000000D+02
     .244806000000D+06  .400000000000D+01
14 14  5 27 22  0  0.0  .168992206454D-03 -.341060513165D-11  .000000000000D+00
     .290000000000D+02  .124250000000D+03  .397445126613D-08  .210959026083D+01
     .655092298985D-05  .752855825704D-02  .854954123497D-05  .515366945267D+04
     .252000000000D+06 -.130385160446D-07  .468334668887D+00 -.208616256714D-06
     .970511899453D+00  .216406250000D+03 -.200280053993D+01 -.778782439415D-08
     .349657421778D-09  .100000000000D+01  .179400000000D+04  .000000000000D+00
     .240000000000D+01  .000000000000D+00 -.931322574615D-08  .290000000000D+02
     .244806000000D+06  .400000000000D+01
15 14  5 27 22  0  0.0 -.181935261935D-03 -.216004991671D-11  .000000000000D+00
     .170000000000D+02  .127031250000D+03  .467626621383D-08  .149384623895D+01
     .663660466671D-05  .625870726071D-02  .956282019615D-05  .515370688820D+04
     .252000000000D+06 -.391155481339D-07  .356361494218D+00  .409781932831D-07
     .937141820816D+00  .180812500000D+03  .274986528304D+00 -.819391273793D-08
     .132862677121D-09  .100000000000D+01  .179400000000D+04  .000000000000D+00
     .240000000000D+01  .000000000000D+00 -.102445483208D-07  .170000000000D+02
     .244806000000D+06  .400000000000D+01
16 14  5 27 22  0  0.0 -.216254033148D-03  .193267624127D-11  .000000000000D+00
     .540000000000D+02 -.124750000000D+03  .379980113411D-08  .312124050216D+01
    -.643171370029D-05  .775294145569D-02  .868923962116D-05  .515360299301D+04
     .252000000000D+06 -.134110450745D-06  .254675398415D+01 -.279396772385D-07
     .988339073295D+00  .228218750000D+03  .210241508946D+00 -.755495755145D-08
    -.168221292806D-09  .100000000000D+01  .179400000000D+04  .000000000000D+00
     .240000000000D+01  .000000000000D+00 -.102445483208D-07  .540000000000D+02
     .244806000000D+06  .400000000000D+01
17 14  5 27 22  0  0.0 -.966484658420D-04 -.306954461848D-11  .000000000000D+00
     .800000000000D+01 -.968750000000D+00  .428267839075D-08  .218475982815D+01
    -.219792127609D-06  .928533042315D-02  .108312815428D-04  .515359622383D+04
     .252000000000D+06 -.428408384323D-07 -.270508652658D+01 -.165775418282D-06
     .968921625578D+00  .173625000000D+03 -.209880511819D+01 -.764138972313D-08
     .530379235281D-09  .100000000000D+01  .179400000000D+04  .000000000000D+00
     .240000000000D+01  .000000000000D+00 -.102445483208D-07  .800000000000D+01
     .244806000000D+06  .400000000000D+01
18 14  5 27 22  0  0.0  .321902800351D-03  .238742359215D-11  .000000000000D+00
     .113000000000D+03 -.254687500000D+02  .497413576415D-08 -.250679259205D+01
    -.130198895931D-05  .153133417480D-01  .984221696854D-05  .515369762421D+04
     .252000000000D+06  .819563865662D-07 -.662422277987D+00 -.124797224998D-06
     .925873072570D+00  .169281250000D+03 -.203753174827D+01 -.790032908042D-08
    -.523593238331D-09  .100000000000D+01  .179400000000D+04  .000000000000D+00
     .240000000000D+01  .000000000000D+00 -.111758708954D-07  .113000000000D+03
     .244806000000D+06  .400000000000D+01
